QIANFAN-60              
1 62790U 25016F   25223.92684862  .00000118  00000+0  16484-3 0  9992
2 62790  88.9814 115.7811 0015344 347.2884  12.7878 13.50959299 30649
QIANFAN-61              
1 62791U 25016G   25223.86532849  .00000125  00000+0  17588-3 0  9997
2 62791  88.9882 115.8617 0014740 346.4695  13.6059 13.50965120 30652
QIANFAN-62              
1 62792U 25016H   25223.94334783  .00000124  00000+0  17348-3 0  9997
2 62792  88.9828 115.7886 0016136 345.8644  14.2054 13.50959000 30650
QIANFAN-63              
1 62793U 25016J   25223.95572551  .00000131  00000+0  18441-3 0  9999
2 62793  88.9835 115.7277 0016097 350.4437   9.6405 13.50956119 30691
QIANFAN-64              
1 62794U 25016K   25223.94744277  .00000118  00000+0  16387-3 0  9997
2 62794  88.9822 115.7252 0013737 345.3496  14.7255 13.50958543 30689
QIANFAN-65              
1 62795U 25016L   25223.93109274  .00000107  00000+0  14720-3 0  9996
2 62795  88.9818 115.7543 0013985 347.1214  12.9578 13.50962566 30667
QIANFAN-66              
1 62796U 25016M   25223.95978222  .00000126  00000+0  17673-3 0  9997
2 62796  88.9837 115.6974 0014933 341.9887  18.0733 13.50957678 30712
QIANFAN-67              
1 62797U 25016N   25223.96397080  .00000116  00000+0  16065-3 0  9999
2 62797  88.9828 115.7346 0015160 348.8213  11.2599 13.50966380 30680
QIANFAN-68              
1 62798U 25016P   25223.89397408  .00000122  00000+0  17082-3 0  9993
2 62798  88.9831 115.7855 0015726 346.9980  13.0763 13.50963802 30654
QIANFAN-69              
1 62799U 25016Q   25223.89806016  .00000111  00000+0  15291-3 0  9992
2 62799  88.9810 115.6780 0015926 347.9065  12.1701 13.50959390 30698
QIANFAN-70              
1 62800U 25016R   25223.91457306  .00000130  00000+0  18301-3 0  9998
2 62800  88.9831 115.7887 0015156 338.4750  21.5763 13.50963191 30656
QIANFAN-71              
1 62801U 25016S   25223.91054127  .00000119  00000+0  16591-3 0  9999
2 62801  88.9825 115.7761 0015967 351.3834   8.7041 13.50962960 30657
QIANFAN-72              
1 62802U 25016T   25223.90629986  .00000115  00000+0  15988-3 0  9995
2 62802  88.9815 115.7971 0019590 356.3976   3.7031 13.50958384 30646
QIANFAN-73              
1 63159U 25046A   25223.95402736  .00000144  00000+0  20475-3 0  9990
2 63159  88.9864 332.6804 0016941 117.6095 242.6779 13.50961120 30834
QIANFAN-74              
1 63160U 25046B   25223.86350685  .00000169  00000+0  24321-3 0  9998
2 63160  88.9864 332.5782 0001964 105.8287 254.3080 13.50966025 30880
QIANFAN-75              
1 63161U 25046C   25223.92528159  .00000176  00000+0  25413-3 0  9990
2 63161  88.9865 332.8037 0018083 120.6249 239.6688 13.50962293 30761
QIANFAN-76              
1 63162U 25046D   25223.92101960  .00000164  00000+0  23580-3 0  9998
2 63162  88.9864 332.7853 0015646 121.0115 239.2575 13.50958648 30776
QIANFAN-77              
1 63163U 25046E   25224.19370019  .00000369  00000+0  25938-3 0  9998
2 63163  88.9861 331.7693 0016982 103.5110 256.7960 13.96013236 31351
QIANFAN-78              
1 63164U 25046F   25223.88821613  .00000175  00000+0  25138-3 0  9992
2 63164  88.9863 332.6540 0016997 123.2982 236.9800 13.50961911 30845
QIANFAN-79              
1 63165U 25046G   25223.91692000  .00000166  00000+0  23750-3 0  9991
2 63165  88.9867 332.7538 0016692 121.6897 238.5885 13.50964055 30794
QIANFAN-80              
1 63166U 25046H   25223.85942620  .00000166  00000+0  23886-3 0  9991
2 63166  88.9864 332.4700 0015644 125.5218 234.7395 13.50964172 30947
QIANFAN-81              
1 63167U 25046J   25223.91288761  .00000159  00000+0  22797-3 0  9990
2 63167  88.9864 332.5330 0016719 115.2374 245.0512 13.50962947 30901
QIANFAN-82              
1 63168U 25046K   25223.87161756  .00000166  00000+0  23755-3 0  9993
2 63168  88.9864 332.5806 0014814 122.1488 238.1103 13.50959829 30888
QIANFAN-83              
1 63169U 25046L   25223.93415774  .00000193  00000+0  23481-3 0  9999
2 63169  88.9864 332.5911 0016166 114.9379 245.3460 13.61934597 30889
QIANFAN-84              
1 63170U 25046M   25223.90043872  .00000166  00000+0  23777-3 0  9992
2 63170  88.9864 332.7108 0017806 119.1294 241.1642 13.50967001 30819
QIANFAN-85              
1 63171U 25046N   25223.89642025  .00000161  00000+0  23078-3 0  9995
2 63171  88.9864 332.5834 0015169 121.1747 239.0893 13.50960874 30882
QIANFAN-86              
1 63172U 25046P   25223.90464490  .00000163  00000+0  23368-3 0  9990
2 63172  88.9866 332.4419 0013021 124.5774 235.6607 13.50961283 30964
QIANFAN-87              
1 63173U 25046Q   25223.94981488  .00000158  00000+0  22531-3 0  9991
2 63173  88.9862 332.5535 0013773 120.1707 240.0810 13.50957854 30902
QIANFAN-88              
1 63174U 25046R   25223.89236338  .00000170  00000+0  24475-3 0  9996
2 63174  88.9865 332.5110 0014079 127.3396 232.9040 13.50965362 30928
QIANFAN-89              
1 63175U 25046S   25223.92927515  .00000171  00000+0  24555-3 0  9995
2 63175  88.9864 332.6962 0018477 119.5460 240.7536 13.50966127 30821
QIANFAN-90              
1 63176U 25046T   25223.88400556  .00000171  00000+0  24632-3 0  9998
2 63176  88.9865 332.6730 0015429 117.8544 242.4173 13.50964844 30835
